EYESAT-1 (AO-27)        
1 22825U 93061C   17123.48190290  .00000021  00000-0  25811-4 0  9999
2 22825  98.8080  88.5244 0009527 100.5305 259.6950 14.29994462230744
CUTE-1 (CO-55)          
1 27844U 03031E   17123.60683721  .00000070  00000-0  51286-4 0  9992
2 27844  98.6905 133.2607 0010900 113.7574 246.4748 14.22032890717948
CUBESAT XI-IV (CO-57)   
1 27848U 03031J   17123.59453488  .00000052  00000-0  43551-4 0  9995
2 27848  98.7000 133.4883 0010708 122.1212 238.1006 14.21648001717835
CUBESAT XI 5            
1 28895U 05043F   17123.11400784  .00000194  00000-0  46250-4 0  9998
2 28895  97.8599 287.4966 0015432 287.6362  72.3155 14.63382189613662
CUTE-1.7+APD II (CO-65) 
1 32785U 08021C   17123.45319601  .00000297  00000-0  38091-4 0  9992
2 32785  97.5700 149.7608 0012043 322.3199  37.7173 14.87861362488171
COMPASS-1               
1 32787U 08021E   17123.56778953  .00000739  00000-0  77102-4 0  9992
2 32787  97.5642 158.4624 0011000 289.5471  70.4560 14.92547316488790
AAUSAT-II               
1 32788U 08021F   17123.55605779  .00000353  00000-0  38391-4 0  9996
2 32788  97.5631 161.2140 0010348 281.1723  78.8334 14.93815247488913
DELFI-C3 (DO-64)        
1 32789U 08021G   17123.47262143  .00001063  00000-0  79740-4 0  9994
2 32789  97.5629 182.6415 0011158 250.3650 109.6373 15.04727998490142
CANX-2                  
1 32790U 08021H   17123.02119354  .00000250  00000-0  33188-4 0  9995
2 32790  97.5677 147.7545 0012832 325.2805  34.7574 14.87591291488049
SEEDS II (CO-66)        
1 32791U 08021J   17123.12143607  .00000365  00000-0  43098-4 0  9993
2 32791  97.5673 153.6683 0012086 307.2115  52.7999 14.90182420488438
SWISSCUBE               
1 35932U 09051B   17123.32974150  .00000199  00000-0  56093-4 0  9998
2 35932  98.4886 261.0488 0008252  37.6871 322.4903 14.55997614403792
BEESAT                  
1 35933U 09051C   17123.38849511  .00000160  00000-0  47059-4 0  9997
2 35933  98.4923 262.3918 0006709  51.4854 308.6943 14.56118928403825
ITUPSAT 1               
1 35935U 09051E   17123.35182032  .00000137  00000-0  42562-4 0  9992
2 35935  98.5033 262.6075 0008889  42.9638 317.2251 14.55314082403717
TISAT 1                 
1 36799U 10035E   17123.29549934  .00000608  00000-0  68535-4 0  9997
2 36799  98.0552 245.1314 0013825 112.9145 247.3533 14.90346986368898
M-CUBED & EXP-1 PRIME   
1 37855U 11061F   17123.39206983  .00002496  00000-0  13828-3 0  9997
2 37855 101.7221 332.0609 0181227 213.8355 145.1186 15.02873761299595
HORYU 2                 
1 38340U 12025D   17123.59595525  .00000281  00000-0  49514-4 0  9995
2 38340  98.3766 125.9478 0013021  75.6786 284.5867 14.75312800256308
STRAND-1                
1 39090U 13009E   17123.11725166  .00000037  00000-0  28255-4 0  9993
2 39090  98.5584 328.9693 0010407  75.8132 284.4209 14.34962078218992
BRITE-AUSTRIA           
1 39091U 13009F   17123.13339803  .00000038  00000-0  28685-4 0  9993
2 39091  98.5546 328.3876 0011725  82.5958 277.6560 14.35024770219021
UNIBRITE                
1 39092U 13009G   17123.12881372  .00000011  00000-0  19416-4 0  9999
2 39092  98.5555 328.0786 0010584  76.7951 283.4414 14.34899398219005
AIST-2                  
1 39133U 13015D   17123.55935073  .00000242  00000-0  29831-4 0  9995
2 39133  64.8740  66.5885 0035740 289.9953  69.7319 15.04257332221194
SOMP                    
1 39134U 13015E   17123.14656120  .00001519  00000-0  84015-4 0  9997
2 39134  64.8683  11.8239 0033736 280.3021  79.4302 15.17659200222264
BEESAT-2                
1 39136U 13015G   17123.09125489  .00001321  00000-0  80155-4 0  9994
2 39136  64.8714  22.0691 0030710 290.3599  69.4227 15.14972016222059
NEE-01 PEGASUS          
1 39151U 13018B   17123.20113718  .00000235  00000-0  38244-4 0  9994
2 39151  97.9823 215.0075 0016949 191.1235 168.9604 14.79695641216881
CUBEBUG-1 (CAPITAN BETO)
1 39153U 13018D   17123.47555098  .00000265  00000-0  41830-4 0  9994
2 39153  97.9843 216.0137 0016919 188.5472 171.5454 14.80156188216978
ESTCUBE 1               
1 39161U 13021C   17123.46731835  .00000287  00000-0  53848-4 0  9997
2 39161  98.0270 210.0507 0008087 288.9774  71.0554 14.71876955214171
POPACS 1                
1 39268U 13055D   17123.11224338  .00008373  00000-0  24221-3 0  9995
2 39268  81.0058  55.2196 0653161 351.9217   7.1823 14.30517383184278
POPACS 2                
1 39269U 13055E   17123.52528183  .00006598  00000-0  19409-3 0  9995
2 39269  81.0166  68.7556 0703005  27.2817 336.3507 14.19596911183748
POPACS 3                
1 39270U 13055F   17123.58137203  .00002423  00000-0  75337-4 0  9998
2 39270  81.0182  76.2941 0727219  50.3851 315.9238 14.12944069163777
FIREFLY                 
1 39404U 13064AA  17122.52944609  .00035717  00000-0  25562-3 0  9992
2 39404  40.4990 231.0700 0005404  73.1842 286.9577 15.72915045194062
ZACUBE-1 (TSHEPISOSAT)  
1 39417U 13066B   17123.55934422  .00000276  00000-0  41346-4 0  9995
2 39417  97.6343 167.9548 0060657  56.9275 303.7742 14.80682717186179
WNISAT-1                
1 39423U 13066H   17123.50388632  .00000168  00000-0  43200-4 0  9994
2 39423  97.6803 115.5833 0174754 217.5612 141.3270 14.52831816182743
TRITON-1                
1 39427U 13066M   17123.59616456  .00000239  00000-0  46061-4 0  9992
2 39427  97.6402 141.9376 0115674 131.1384 229.9874 14.67433334184317
GOMX 1                  
1 39430U 13066Q   17123.58970458  .00000223  00000-0  49577-4 0  9998
2 39430  97.6648 126.0292 0151875 183.3122 176.7088 14.58843055183248
BRITE-PL                
1 39431U 13066R   17123.51144876  .00000074  00000-0  26690-4 0  9994
2 39431  97.7030 105.2409 0201279 253.9178 103.9772 14.46833245181790
HUMSAT-D                
1 39433U 13066T   17123.23550298  .00000520  00000-0  57229-4 0  9992
2 39433  97.6561 187.6780 0031307   9.6197 350.5614 14.91378144186136
EAGLE 2                 
1 39436U 13066W   17123.50654235  .00017481  00000-0  51179-3 0  9992
2 39436  97.7049 227.3658 0011260 234.4888 125.5305 15.35244121188649
CUBEBUG-2 (LO-74)       
1 39440U 13066AA  17123.55301085  .00000295  00000-0  48184-4 0  9992
2 39440  97.6329 157.4789 0082420  85.3938 275.6681 14.75423743184313
NEE-02 KRYSAOR          
1 39441U 13066AB  17123.60316496  .00000196  00000-0  34927-4 0  9991
2 39441  97.6310 156.3018 0083778  88.4853 272.5952 14.74597633184253
FUNCUBE-1 (AO-73)       
1 39444U 13066AE  17123.56096467  .00000362  00000-0  51391-4 0  9991
2 39444  97.6357 168.9530 0059769  53.9446 306.7284 14.81408646184412
UWE-3                   
1 39446U 13066AG  17123.60018418  .00000289  00000-0  45285-4 0  9991
2 39446  97.6324 162.4877 0071963  71.2336 289.6666 14.77956140184024
BRITE-TORONTO           
1 40020U 14033L   17123.61467258  .00000090  00000-0  23722-4 0  9999
2 40020  97.8426 356.3807 0088989 108.4870 252.6031 14.66378723153449
DUCHIFAT-1              
1 40021U 14033M   17123.56900444  .00000604  00000-0  68768-4 0  9993
2 40021  97.9206  36.6660 0014656  88.0316 272.2579 14.89838492155952
FLOCK 1C-10             
1 40023U 14033P   17123.56590819  .00000856  00000-0  97689-4 0  9999
2 40023  97.9241  35.7976 0014205  91.1401 269.1414 14.88638685155867
NANOSATC-BR1            
1 40024U 14033Q   17123.41660319  .00000459  00000-0  54542-4 0  9997
2 40024  97.9168  35.4706 0013937  89.3058 270.9756 14.89170897155880
QB50P1                  
1 40025U 14033R   17123.30508659  .00000372  00000-0  46169-4 0  9994
2 40025  97.9151  34.4665 0014078  92.2031 268.0797 14.88382886155815
FLOCK 1C-7              
1 40026U 14033S   17123.40315312  .00001311  00000-0  14388-3 0  9999
2 40026  97.9266  36.2972 0012577  88.1659 272.0981 14.89375503155882
FLOCK 1C-1              
1 40027U 14033T   17123.33413470  .00001246  00000-0  13926-3 0  9990
2 40027  97.9240  35.7760 0014026  89.8776 270.4049 14.88704968155846
POPSAT-HIP-1            
1 40028U 14033U   17123.53444695  .00000645  00000-0  75851-4 0  9994
2 40028  97.9187  34.9555 0015433  88.4575 271.8374 14.88256724155832
FLOCK 1C-2              
1 40029U 14033V   17123.56515104  .00000775  00000-0  88832-4 0  9999
2 40029  97.9257  35.8731 0015686  86.0238 274.2772 14.88719603155869
FLOCK 1C-4              
1 40031U 14033X   17123.44264752  .00000649  00000-0  75617-4 0  9996
2 40031  97.9252  35.7440 0016031  84.6190 275.6829 14.88578726155833
QB50P2                  
1 40032U 14033Y   17123.54096361  .00000344  00000-0  43603-4 0  9999
2 40032  97.9126  33.8676 0013522  86.8806 273.3957 14.87942096155802
FLOCK 1C-11             
1 40033U 14033Z   17123.54744602  .00001334  00000-0  14367-3 0  9992
2 40033  97.9266  37.1210 0013318  78.3757 281.8867 14.90126501155941
ANTELSAT                
1 40034U 14033AA  17123.60677953  .00000284  00000-0  49972-4 0  9998
2 40034  97.8653   8.9059 0060578  76.5244 284.2706 14.73668614153820
FLOCK 1C-9              
1 40035U 14033AB  17123.55549902  .00001057  00000-0  11887-3 0  9997
2 40035  97.9277  36.2030 0013128  80.2645 280.0029 14.88775144155864
FLOCK 1C-6              
1 40036U 14033AC  17123.57962904  .00000818  00000-0  93161-4 0  9991
2 40036  97.9283  36.4200 0013620  79.5835 280.6926 14.88876701155887
PERSEUS-M2              
1 40037U 14033AD  17123.62420556  .00000108  00000-0  18600-4 0  9997
2 40037  97.9150  32.6128 0015953  91.3734 268.9309 14.86209618155192
FLOCK 1C-5              
1 40038U 14033AE  17123.51950262  .00000975  00000-0  10979-3 0  9990
2 40038  97.9270  36.1817 0015999  79.6123 280.6904 14.88875449155860
PERSEUS-M1              
1 40039U 14033AF  17123.54536947  .00000121  00000-0  20255-4 0  9996
2 40039  97.9158  32.1198 0015797  87.8840 272.4184 14.85834214155655
FLOCK 1C-8              
1 40040U 14033AG  17123.29969193  .00000839  00000-0  90986-4 0  9997
2 40040  97.9299  37.8949 0014603  69.0776 291.2000 14.90801851155949
